start=new Date('2022-05-16T00:00:00.000Z').valueOf();
sats=[{"MEAN_ANOMALY":"338.9818","REV_AT_EPOCH":"507","LAUNCH_DATE":"2022-04-29","TIME_SYSTEM":"UTC","PERIOD":"91.550","TLE_LINE1":"1 52341U 22045L   22135.91667824 -.00066956  00000-0 -48240-3 0  9999","FILE":"3447465","OBJECT_NAME":"STARLINK-3843","EPHEMERIS_TYPE":"0","NORAD_CAT_ID":"52341","MEAN_ELEMENT_THEORY":"SGP4","APOAPSIS":"351.377","TLE_LINE2":"2 52341  53.2164 356.9434 0001179  92.6773 338.9818 15.72911244  5072","GP_ID":"203626535","INCLINATION":"53.2164","SEMIMAJOR_AXIS":"6728.719","ECCENTRICITY":"0.00011790","MEAN_MOTION_DDOT":"0.0000000000000","OBJECT_ID":"2022-045L","OBJECT_TYPE":"PAYLOAD","MEAN_MOTION_DOT":"-0.00066956","PERIAPSIS":"349.790","DECAY_DATE":null,"RCS_SIZE":"LARGE","MEAN_MOTION":"15.72911244","EPOCH":"2022-05-15T22:00:00.999936","SITE":"AFETR","RA_OF_ASC_NODE":"356.9434","ARG_OF_PERICENTER":"92.6773","ELEMENT_SET_NO":"999","CENTER_NAME":"EARTH","BSTAR":"-0.00048240000000","CLASSIFICATION_TYPE":"U","REF_FRAME":"TEME","COUNTRY_CODE":"US"},{"RCS_SIZE":"MEDIUM","MEAN_MOTION":"15.73207307","DECAY_DATE":null,"OBJECT_TYPE":"PAYLOAD","MEAN_MOTION_DOT":"-0.00006056","PERIAPSIS":"348.847","OBJECT_ID":"2022-045M","MEAN_MOTION_DDOT":"0.0000000000000","ECCENTRICITY":"0.00013260","SEMIMAJOR_AXIS":"6727.874","INCLINATION":"53.2173","COUNTRY_CODE":"US","REF_FRAME":"TEME","BSTAR":"-0.00003874700000","CENTER_NAME":"EARTH","CLASSIFICATION_TYPE":"U","ELEMENT_SET_NO":"999","ARG_OF_PERICENTER":"78.7136","RA_OF_ASC_NODE":"356.9342","SITE":"AFETR","EPOCH":"2022-05-15T22:00:00.999936","FILE":"3447465","OBJECT_NAME":"STARLINK-3850","TLE_LINE1":"1 52342U 22045M   22135.91667824 -.00006056  00000-0 -38747-4 0  9997","PERIOD":"91.533","TIME_SYSTEM":"UTC","LAUNCH_DATE":"2022-04-29","REV_AT_EPOCH":"507","MEAN_ANOMALY":"356.8542","GP_ID":"203626529","TLE_LINE2":"2 52342  53.2173 356.9342 0001326  78.7136 356.8542 15.73207307  5075","APOAPSIS":"350.631","NORAD_CAT_ID":"52342","MEAN_ELEMENT_THEORY":"SGP4","EPHEMERIS_TYPE":"0"},{"NORAD_CAT_ID":"52343","MEAN_ELEMENT_THEORY":"SGP4","EPHEMERIS_TYPE":"0","GP_ID":"203626849","TLE_LINE2":"2 52343  53.2163 356.9417 0001166  76.7799 356.6948 15.72864880  5075","APOAPSIS":"351.500","REV_AT_EPOCH":"507","MEAN_ANOMALY":"356.6948","FILE":"3447465","OBJECT_NAME":"STARLINK-3849","TLE_LINE1":"1 52343U 22045N   22135.91667824  .00019333  00000-0  14387-3 0  9991","PERIOD":"91.553","TIME_SYSTEM":"UTC","LAUNCH_DATE":"2022-04-29","ARG_OF_PERICENTER":"76.7799","SITE":"AFETR","RA_OF_ASC_NODE":"356.9417","EPOCH":"2022-05-15T22:00:00.999936","REF_FRAME":"TEME","COUNTRY_CODE":"US","BSTAR":"0.00014387000000","CENTER_NAME":"EARTH","CLASSIFICATION_TYPE":"U","ELEMENT_SET_NO":"999","MEAN_MOTION_DOT":"0.00019333","OBJECT_TYPE":"PAYLOAD","PERIAPSIS":"349.931","MEAN_MOTION_DDOT":"0.0000000000000","OBJECT_ID":"2022-045N","ECCENTRICITY":"0.00011660","INCLINATION":"53.2163","SEMIMAJOR_AXIS":"6728.851","MEAN_MOTION":"15.72864880","RCS_SIZE":"MEDIUM","DECAY_DATE":null},{"REV_AT_EPOCH":"507","MEAN_ANOMALY":"344.1120","PERIOD":"91.534","FILE":"3447467","OBJECT_NAME":"STARLINK-3851","TLE_LINE1":"1 52344U 22045P   22135.91667824 -.00035306  00000-0 -24833-3 0  9999","TIME_SYSTEM":"UTC","LAUNCH_DATE":"2022-04-29","MEAN_ELEMENT_THEORY":"SGP4","NORAD_CAT_ID":"52344","EPHEMERIS_TYPE":"0","GP_ID":"203626615","TLE_LINE2":"2 52344  53.2127 356.9342 0000939  92.9147 344.1120 15.73188556  5071","APOAPSIS":"350.425","OBJECT_TYPE":"PAYLOAD","PERIAPSIS":"349.161","MEAN_MOTION_DOT":"-0.00035306","INCLINATION":"53.2127","SEMIMAJOR_AXIS":"6727.928","MEAN_MOTION_DDOT":"0.0000000000000","OBJECT_ID":"2022-045P","ECCENTRICITY":"0.00009390","MEAN_MOTION":"15.73188556","RCS_SIZE":"LARGE","DECAY_DATE":null,"SITE":"AFETR","RA_OF_ASC_NODE":"356.9342","ARG_OF_PERICENTER":"92.9147","EPOCH":"2022-05-15T22:00:00.999936","CLASSIFICATION_TYPE":"U","CENTER_NAME":"EARTH","BSTAR":"-0.00024833000000","ELEMENT_SET_NO":"999","COUNTRY_CODE":"US","REF_FRAME":"TEME"},{"NORAD_CAT_ID":"52345","MEAN_ELEMENT_THEORY":"SGP4","EPHEMERIS_TYPE":"0","TLE_LINE2":"2 52345  53.2130 356.9409 0000892 104.7181 329.2902 15.73151527  1300","GP_ID":"203653020","APOAPSIS":"350.499","REV_AT_EPOCH":"130","MEAN_ANOMALY":"329.2902","PERIOD":"91.536","TLE_LINE1":"1 52345U 22045Q   22135.91667824  .00025261  00000-0  18424-3 0  9996","OBJECT_NAME":"STARLINK-3852","FILE":"3447521","LAUNCH_DATE":"2022-04-29","TIME_SYSTEM":"UTC","SITE":"AFETR","RA_OF_ASC_NODE":"356.9409","ARG_OF_PERICENTER":"104.7181","EPOCH":"2022-05-15T22:00:00.999936","ELEMENT_SET_NO":"999","BSTAR":"0.00018424000000","CENTER_NAME":"EARTH","CLASSIFICATION_TYPE":"U","REF_FRAME":"TEME","COUNTRY_CODE":"US","OBJECT_TYPE":"PAYLOAD","PERIAPSIS":"349.298","MEAN_MOTION_DOT":"0.00025261","SEMIMAJOR_AXIS":"6728.033","INCLINATION":"53.2130","ECCENTRICITY":"0.00008920","OBJECT_ID":"2022-045Q","MEAN_MOTION_DDOT":"0.0000000000000","RCS_SIZE":"LARGE","MEAN_MOTION":"15.73151527","DECAY_DATE":null},{"EPHEMERIS_TYPE":"0","NORAD_CAT_ID":"52346","MEAN_ELEMENT_THEORY":"SGP4","APOAPSIS":"350.502","GP_ID":"203652803","TLE_LINE2":"2 52346  53.2126 356.9330 0000991  90.4919 347.1329 15.73173659  1301","MEAN_ANOMALY":"347.1329","REV_AT_EPOCH":"130","TIME_SYSTEM":"UTC","LAUNCH_DATE":"2022-04-29","OBJECT_NAME":"STARLINK-3812","FILE":"3447521","TLE_LINE1":"1 52346U 22045R   22135.91667824  .00055009  00000-0  39424-3 0  9993","PERIOD":"91.535","EPOCH":"2022-05-15T22:00:00.999936","ARG_OF_PERICENTER":"90.4919","RA_OF_ASC_NODE":"356.9330","SITE":"AFETR","COUNTRY_CODE":"US","REF_FRAME":"TEME","BSTAR":"0.00039424000000","CLASSIFICATION_TYPE":"U","CENTER_NAME":"EARTH","ELEMENT_SET_NO":"999","OBJECT_ID":"2022-045R","MEAN_MOTION_DDOT":"0.0000000000000","ECCENTRICITY":"0.00009910","SEMIMAJOR_AXIS":"6727.970","INCLINATION":"53.2126","OBJECT_TYPE":"PAYLOAD","PERIAPSIS":"349.169","MEAN_MOTION_DOT":"0.00055009","DECAY_DATE":null,"MEAN_MOTION":"15.73173659","RCS_SIZE":"LARGE"},{"PERIOD":"91.533","TLE_LINE1":"1 52347U 22045S   22135.91667824 -.00057512  00000-0 -40820-3 0  9999","OBJECT_NAME":"STARLINK-3826","FILE":"3447465","LAUNCH_DATE":"2022-04-29","TIME_SYSTEM":"UTC","REV_AT_EPOCH":"507","MEAN_ANOMALY":"353.9533","TLE_LINE2":"2 52347  53.2134 356.9383 0001086  81.2743 353.9533 15.73198214  5072","GP_ID":"203626855","APOAPSIS":"350.496","NORAD_CAT_ID":"52347","MEAN_ELEMENT_THEORY":"SGP4","EPHEMERIS_TYPE":"0","RCS_SIZE":"LARGE","MEAN_MOTION":"15.73198214","DECAY_DATE":null,"OBJECT_TYPE":"PAYLOAD","PERIAPSIS":"349.035","MEAN_MOTION_DOT":"-0.00057512","INCLINATION":"53.2134","SEMIMAJOR_AXIS":"6727.900","ECCENTRICITY":"0.00010860","MEAN_MOTION_DDOT":"0.0000000000000","OBJECT_ID":"2022-045S","ELEMENT_SET_NO":"999","BSTAR":"-0.00040820000000","CENTER_NAME":"EARTH","CLASSIFICATION_TYPE":"U","REF_FRAME":"TEME","COUNTRY_CODE":"US","RA_OF_ASC_NODE":"356.9383","SITE":"AFETR","ARG_OF_PERICENTER":"81.2743","EPOCH":"2022-05-15T22:00:00.999936"},{"MEAN_ANOMALY":"357.1390","REV_AT_EPOCH":"130","LAUNCH_DATE":"2022-04-29","TIME_SYSTEM":"UTC","TLE_LINE1":"1 52348U 22045T   22135.91667824  .00061197  00000-0  43838-3 0  9994","OBJECT_NAME":"STARLINK-3829","FILE":"3447521","PERIOD":"91.537","EPHEMERIS_TYPE":"0","NORAD_CAT_ID":"52348","MEAN_ELEMENT_THEORY":"SGP4","APOAPSIS":"350.617","TLE_LINE2":"2 52348  53.2127 356.9302 0001024  81.6754 357.1390 15.73141050  1309","GP_ID":"203652709","ECCENTRICITY":"0.00010240","MEAN_MOTION_DDOT":"0.0000000000000","OBJECT_ID":"2022-045T","SEMIMAJOR_AXIS":"6728.063","INCLINATION":"53.2127","OBJECT_TYPE":"PAYLOAD","PERIAPSIS":"349.239","MEAN_MOTION_DOT":"0.00061197","DECAY_DATE":null,"RCS_SIZE":"MEDIUM","MEAN_MOTION":"15.73141050","EPOCH":"2022-05-15T22:00:00.999936","ARG_OF_PERICENTER":"81.6754","SITE":"AFETR","RA_OF_ASC_NODE":"356.9302","REF_FRAME":"TEME","COUNTRY_CODE":"US","ELEMENT_SET_NO":"999","CLASSIFICATION_TYPE":"U","CENTER_NAME":"EARTH","BSTAR":"0.00043838000000"},{"EPOCH":"2022-05-15T22:00:00.999936","ARG_OF_PERICENTER":"87.5299","RA_OF_ASC_NODE":"356.9356","SITE":"AFETR","REF_FRAME":"TEME","COUNTRY_CODE":"US","ELEMENT_SET_NO":"999","CENTER_NAME":"EARTH","CLASSIFICATION_TYPE":"U","BSTAR":"-0.00049976000000","ECCENTRICITY":"0.00011510","MEAN_MOTION_DDOT":"0.0000000000000","OBJECT_ID":"2022-045U","SEMIMAJOR_AXIS":"6727.780","INCLINATION":"53.2128","OBJECT_TYPE":"PAYLOAD","PERIAPSIS":"348.870","MEAN_MOTION_DOT":"-0.00070294","DECAY_DATE":null,"MEAN_MOTION":"15.73240528","RCS_SIZE":"LARGE","EPHEMERIS_TYPE":"0","NORAD_CAT_ID":"52349","MEAN_ELEMENT_THEORY":"SGP4","APOAPSIS":"350.419","TLE_LINE2":"2 52349  53.2128 356.9356 0001151  87.5299 348.8859 15.73240528  5075","GP_ID":"203626635","MEAN_ANOMALY":"348.8859","REV_AT_EPOCH":"507","LAUNCH_DATE":"2022-04-29","TIME_SYSTEM":"UTC","TLE_LINE1":"1 52349U 22045U   22135.91667824 -.00070294  00000-0 -49976-3 0  9994","OBJECT_NAME":"STARLINK-3819","FILE":"3447472","PERIOD":"91.531"},{"TLE_LINE2":"2 52350  53.2125 356.9293 0000781 105.4638 333.8876 15.73153746  1309","GP_ID":"203652458","APOAPSIS":"350.418","NORAD_CAT_ID":"52350","MEAN_ELEMENT_THEORY":"SGP4","EPHEMERIS_TYPE":"0","PERIOD":"91.536","TLE_LINE1":"1 52350U 22045V   22135.91667824  .00060065  00000-0  43018-3 0  9990","FILE":"3447521","OBJECT_NAME":"STARLINK-3754","LAUNCH_DATE":"2022-04-29","TIME_SYSTEM":"UTC","REV_AT_EPOCH":"130","MEAN_ANOMALY":"333.8876","ELEMENT_SET_NO":"999","CLASSIFICATION_TYPE":"U","CENTER_NAME":"EARTH","BSTAR":"0.00043018000000","REF_FRAME":"TEME","COUNTRY_CODE":"US","RA_OF_ASC_NODE":"356.9293","SITE":"AFETR","ARG_OF_PERICENTER":"105.4638","EPOCH":"2022-05-15T22:00:00.999936","MEAN_MOTION":"15.73153746","RCS_SIZE":"LARGE","DECAY_DATE":null,"MEAN_MOTION_DOT":"0.00060065","OBJECT_TYPE":"PAYLOAD","PERIAPSIS":"349.367","SEMIMAJOR_AXIS":"6728.027","INCLINATION":"53.2125","ECCENTRICITY":"0.00007810","MEAN_MOTION_DDOT":"0.0000000000000","OBJECT_ID":"2022-045V"}];
